OBJECT_NAME,OBJECT_ID,EPOCH,MEAN_MOTION,ECCENTRICITY,INCLINATION,RA_OF_ASC_NODE,ARG_OF_PERICENTER,MEAN_ANOMALY,EPHEMERIS_TYPE,CLASSIFICATION_TYPE,NORAD_CAT_ID,ELEMENT_SET_NO,REV_AT_EPOCH,BSTAR,MEAN_MOTION_DOT,MEAN_MOTION_DDOT
STARLINK-37340,2026-081K,2026-06-09T04:15:15.568128,15.34401523,.00014301,53.1594,328.8870,90.4159,269.7007,0,U,68708,999,875,.3125754E-3,.10199E-3,0
STARLINK-37303,2026-081L,2026-06-09T04:09:12.305376,15.34390284,.00018327,53.1610,328.8587,83.3068,276.8144,0,U,68709,999,875,.20203831E-2,.6849E-3,0
STARLINK-36859,2026-081M,2026-06-09T04:06:10.042848,15.34412025,.00007541,53.1592,328.8441,68.4616,291.6467,0,U,68710,999,875,.58072881E-3,.19303E-3,0
STARLINK-37320,2026-081N,2026-06-09T04:07:58.025568,15.35432140,.00010978,53.1602,328.8530,94.0754,266.0375,0,U,68711,999,875,.6334848E-3,.21803E-3,0
STARLINK-37318,2026-081P,2026-06-09T04:02:16.628928,15.35414055,.00013142,53.1605,328.8260,65.2745,294.8394,0,U,68712,999,875,.99001611E-3,.34326E-3,0
STARLINK-37305,2026-081Q,2026-06-09T03:57:04.241088,15.34414457,.00009678,53.1590,328.7995,77.3717,282.7394,0,U,68713,999,875,.96206075E-3,.32283E-3,0
STARLINK-37225,2026-081R,2026-06-09T03:54:02.588544,15.34421355,.0000154,53.1568,328.7966,86.2509,273.8511,0,U,68714,999,875,.74205893E-3,.24796E-3,0
STARLINK-37322,2026-081S,2026-06-09T06:58:36.201792,15.34410838,.00016818,53.1587,328.1683,106.4475,253.6713,0,U,68715,999,877,.1000859E-2,.33603E-3,0
STARLINK-36337,2026-081T,2026-06-09T06:57:26.998848,15.35416047,.00009365,53.1592,328.1766,70.7478,289.3626,0,U,68716,999,877,.79724486E-3,.27545E-3,0
STARLINK-36685,2026-081U,2026-06-08T18:24:59.516928,15.35429513,.0001263,53.1595,330.5886,84.4142,275.7005,0,U,68717,999,869,.88693029E-3,.30712E-3,0
STARLINK-36684,2026-081V,2026-06-08T18:19:08.876352,15.34414071,.0001553,53.1599,330.5619,116.1402,243.9760,0,U,68718,999,869,.73553719E-3,.24568E-3,0
STARLINK-36686,2026-081W,2026-06-08T18:13:05.362176,15.34428672,.00011763,53.1606,330.5388,104.8231,255.2902,0,U,68719,999,869,.11770769E-2,.3964E-3,0
STARLINK-36681,2026-081X,2026-06-08T18:04:00.259392,15.34416330,.00013581,53.1610,330.4965,67.1164,292.9982,0,U,68720,999,869,.82748268E-3,.27699E-3,0
STARLINK-36680,2026-081Y,2026-06-08T18:10:04.978848,15.34386255,.00009024,53.1610,330.5196,87.8396,272.2710,0,U,68721,999,869,.80737523E-3,.26988E-3,0
STARLINK-37271,2026-081Z,2026-06-08T18:07:01.886016,15.34415407,.00010236,53.1598,330.5045,87.6024,272.5096,0,U,68722,999,869,.73451996E-3,.24534E-3,0
STARLINK-37273,2026-081AA,2026-06-08T21:23:42.721152,15.34417692,.00012808,53.1604,329.9470,92.5280,267.5869,0,U,68723,999,871,.72740654E-3,.24294E-3,0
STARLINK-37274,2026-081AB,2026-06-09T00:00:04.000320,15.35351745,.00012737,53.1595,329.3314,65.8804,223.2064,0,U,68724,999,593,.13076684E-2,.45438E-3,0
STARLINK-37275,2026-081AC,2026-06-09T00:00:04.000320,15.35390354,.0000931,53.1594,329.3418,79.6641,213.7787,0,U,68725,999,598,.78639337E-3,.2714E-3,0
STARLINK-37272,2026-081AD,2026-06-09T06:00:02.999808,15.34371965,.00001728,53.1601,328.1191,87.6351,164.0091,0,U,68726,999,602,.12969149E-2,.43659E-3,0
STARLINK-37270,2026-081AE,2026-06-09T04:48:27.114048,15.34412118,.00006999,53.1609,328.3238,33.3770,326.7277,0,U,68727,999,876,.87493566E-3,.29312E-3,0
STARLINK-37242,2026-082A,2026-06-09T06:00:02.999808,15.33465905,.00018835,97.2854,23.8701,96.6260,220.5425,0,U,68728,999,600,-.1401256E-2,-.45077E-3,0
STARLINK-37264,2026-082B,2026-06-09T01:56:45.545280,15.33473831,.00009391,97.2859,23.6578,130.8301,229.3024,0,U,68729,999,845,.6854507E-3,.22139E-3,0
STARLINK-37230,2026-082C,2026-06-09T04:21:37.502784,15.33461494,.00013125,97.2839,23.8266,127.0525,233.0838,0,U,68730,999,847,.50591529E-3,.16302E-3,0
STARLINK-37202,2026-082D,2026-06-09T02:00:41.012064,15.33451059,.00022197,97.2842,23.6489,107.0407,253.1079,0,U,68731,999,845,.44565122E-3,.14343E-3,0
STARLINK-37167,2026-082E,2026-06-09T02:04:35.700384,15.33461586,.00010306,97.2865,23.6499,110.3803,249.7551,0,U,68732,999,845,.53537229E-3,.17257E-3,0
STARLINK-37278,2026-082F,2026-06-09T02:08:30.179616,15.33470404,.0000352,97.2876,23.8004,78.7963,281.3319,0,U,68733,999,846,.46182884E-3,.14876E-3,0
STARLINK-37349,2026-082G,2026-06-09T02:28:04.435104,15.33421850,.00016668,97.2859,23.7809,102.6307,257.5122,0,U,68734,999,846,.31440715E-3,.10081E-3,0
STARLINK-37339,2026-082H,2026-06-09T02:24:09.948960,15.33459175,.00014899,97.2864,23.7838,138.7553,221.3803,0,U,68735,999,846,.43334949E-3,.13947E-3,0
STARLINK-37327,2026-082J,2026-06-09T04:56:53.603808,15.33384036,.00010634,97.2888,23.7937,50.6243,309.5094,0,U,68736,999,847,-.61571074E-3,-.19863E-3,0
STARLINK-37348,2026-082K,2026-06-09T04:45:07.126560,15.33446852,.00011154,97.2876,23.8005,99.6022,260.5347,0,U,68737,999,847,.62531073E-3,.20167E-3,0
