STARLINK-37340          
1 68708U 26081K   26160.17726352  .00010199  00000+0  31258-3 0  9995
2 68708  53.1594 328.8870 0001430  90.4159 269.7007 15.34401523  8759
STARLINK-37303          
1 68709U 26081L   26160.17305909  .00068490  00000+0  20204-2 0  9992
2 68709  53.1610 328.8587 0001832  83.3068 276.8144 15.34390284  8752
STARLINK-36859          
1 68710U 26081M   26160.17094957  .00019303  00000+0  58073-3 0  9997
2 68710  53.1592 328.8441 0000754  68.4616 291.6467 15.34412025  8758
STARLINK-37320          
1 68711U 26081N   26160.17219937  .00021803  00000+0  63348-3 0  9994
2 68711  53.1602 328.8530 0001097  94.0754 266.0375 15.35432140  8754
STARLINK-37318          
1 68712U 26081P   26160.16824802  .00034326  00000+0  99002-3 0  9997
2 68712  53.1605 328.8260 0001314  65.2745 294.8394 15.35414055  8755
STARLINK-37305          
1 68713U 26081Q   26160.16463242  .00032283  00000+0  96206-3 0  9998
2 68713  53.1590 328.7995 0000967  77.3717 282.7394 15.34414457  8750
STARLINK-37225          
1 68714U 26081R   26160.16252996  .00024796  00000+0  74206-3 0  9997
2 68714  53.1568 328.7966 0000154  86.2509 273.8511 15.34421355  8757
STARLINK-37322          
1 68715U 26081S   26160.29069678  .00033603  00000+0  10009-2 0  9992
2 68715  53.1587 328.1683 0001681 106.4475 253.6713 15.34410838  8778
STARLINK-36337          
1 68716U 26081T   26160.28989582  .00027545  00000+0  79724-3 0  9995
2 68716  53.1592 328.1766 0000936  70.7478 289.3626 15.35416047  8773
STARLINK-36685          
1 68717U 26081U   26159.76735552  .00030712  00000+0  88693-3 0  9998
2 68717  53.1595 330.5886 0001263  84.4142 275.7005 15.35429513  8694
STARLINK-36684          
1 68718U 26081V   26159.76329718  .00024568  00000+0  73554-3 0  9994
2 68718  53.1599 330.5619 0001553 116.1402 243.9760 15.34414071  8694
STARLINK-36686          
1 68719U 26081W   26159.75908984  .00039640  00000+0  11771-2 0  9991
2 68719  53.1606 330.5388 0001176 104.8231 255.2902 15.34428672  8698
STARLINK-36681          
1 68720U 26081X   26159.75278078  .00027699  00000+0  82748-3 0  9991
2 68720  53.1610 330.4965 0001358  67.1164 292.9982 15.34416330  8697
STARLINK-36680          
1 68721U 26081Y   26159.75700207  .00026988  00000+0  80738-3 0  9993
2 68721  53.1610 330.5196 0000902  87.8396 272.2710 15.34386255  8697
STARLINK-37271          
1 68722U 26081Z   26159.75488294  .00024534  00000+0  73452-3 0  9993
2 68722  53.1598 330.5045 0001023  87.6024 272.5096 15.34415407  8699
STARLINK-37273          
1 68723U 26081AA  26159.89146668  .00024294  00000+0  72741-3 0  9998
2 68723  53.1604 329.9470 0001280  92.5280 267.5869 15.34417692  8719
STARLINK-37274          
1 68724U 26081AB  26160.00004630  .00045438  00000+0  13077-2 0  9995
2 68724  53.1595 329.3314 0001273  65.8804 223.2064 15.35351745  5931
STARLINK-37275          
1 68725U 26081AC  26160.00004630  .00027140  00000+0  78639-3 0  9992
2 68725  53.1594 329.3418 0000931  79.6641 213.7787 15.35390354  5988
STARLINK-37272          
1 68726U 26081AD  26160.25003472  .00043659  00000+0  12969-2 0  9999
2 68726  53.1601 328.1191 0000172  87.6351 164.0091 15.34371965  6025
STARLINK-37270          
1 68727U 26081AE  26160.20031382  .00029312  00000+0  87494-3 0  9992
2 68727  53.1609 328.3238 0000699  33.3770 326.7277 15.34412118  8767
STARLINK-37242          
1 68728U 26082A   26160.25003472 -.00045077  00000+0 -14013-2 0  9992
2 68728  97.2854  23.8701 0001883  96.6260 220.5425 15.33465905  6005
STARLINK-37264          
1 68729U 26082B   26160.08108270  .00022139  00000+0  68545-3 0  9998
2 68729  97.2859  23.6578 0000939 130.8301 229.3024 15.33473831  8459
STARLINK-37230          
1 68730U 26082C   26160.18168406  .00016302  00000+0  50592-3 0  9996
2 68730  97.2839  23.8266 0001312 127.0525 233.0838 15.33461494  8476
STARLINK-37202          
1 68731U 26082D   26160.08380801  .00014343  00000+0  44565-3 0  9997
2 68731  97.2842  23.6489 0002219 107.0407 253.1079 15.33451059  8454
STARLINK-37167          
1 68732U 26082E   26160.08652431  .00017257  00000+0  53537-3 0  9995
2 68732  97.2865  23.6499 0001030 110.3803 249.7551 15.33461586  8450
STARLINK-37278          
1 68733U 26082F   26160.08923819  .00014876  00000+0  46183-3 0  9990
2 68733  97.2876  23.8004 0000352  78.7963 281.3319 15.33470404  8461
STARLINK-37349          
1 68734U 26082G   26160.10282911  .00010081  00000+0  31441-3 0  9990
2 68734  97.2859  23.7809 0001666 102.6307 257.5122 15.33421850  8461
STARLINK-37339          
1 68735U 26082H   26160.10011515  .00013947  00000+0  43335-3 0  9990
2 68735  97.2864  23.7838 0001489 138.7553 221.3803 15.33459175  8462
STARLINK-37327          
1 68736U 26082J   26160.20617597 -.00019863  00000+0 -61571-3 0  9991
2 68736  97.2888  23.7937 0001063  50.6243 309.5094 15.33384036  8470
STARLINK-37348          
1 68737U 26082K   26160.19799915  .00020167  00000+0  62531-3 0  9999
2 68737  97.2876  23.8005 0001115  99.6022 260.5347 15.33446852  8473
